[{"norad_id":"55654","company":"STARLINK","tle_line2":"2 55654  70.0018  59.3293 0003328 270.4325  89.6453 14.98335645154848","launch_date":"2023-02-17","type":"LEO","tle_line1":"1 55654U 23021AC  25340.60131154  .00001319  00000+0  11833-3 0  9990","satellite_name":"STARLINK-5070"},{"norad_id":"55655","company":"STARLINK","tle_line2":"2 55655  70.0010  39.3505 0002825 275.1203  84.9634 14.98329411155320","launch_date":"2023-02-17","type":"LEO","tle_line1":"1 55655U 23021AD  25340.57187459 -.00000617  00000+0 -43966-4 0  9991","satellite_name":"STARLINK-5267"},{"norad_id":"55657","company":"STARLINK","tle_line2":"2 55657  70.0010  40.3915 0002241 117.3192 242.8196 14.97939509155271","launch_date":"2023-02-17","type":"LEO","tle_line1":"1 55657U 23021AF  25340.18004770 -.00046661  00000+0 -39690-2 0  9990","satellite_name":"STARLINK-5328"},{"norad_id":"55658","company":"STARLINK","tle_line2":"2 55658  70.0001  58.9985 0003379 274.7544  85.3229 14.98319605154856","launch_date":"2023-02-17","type":"LEO","tle_line1":"1 55658U 23021AG  25340.62216339  .00002682  00000+0  23258-3 0  9993","satellite_name":"STARLINK-5307"},{"norad_id":"55659","company":"STARLINK","tle_line2":"2 55659  70.0009  39.3628 0002807 267.9177  92.1660 14.98306057155328","launch_date":"2023-02-17","type":"LEO","tle_line1":"1 55659U 23021AH  25340.57605512  .00000900  00000+0  83254-4 0  9997","satellite_name":"STARLINK-5477"},{"norad_id":"55660","company":"STARLINK","tle_line2":"2 55660  70.0038  39.2016 0002217 155.3535 204.7731 14.98398377155332","launch_date":"2023-02-17","type":"LEO","tle_line1":"1 55660U 23021AJ  25340.52589602  .00013095  00000+0  11013-2 0  9996","satellite_name":"STARLINK-5467"},{"norad_id":"55661","company":"STARLINK","tle_line2":"2 55661  70.0000  39.3066 0003411 267.0490  93.0278 14.98336389155336","launch_date":"2023-02-17","type":"LEO","tle_line1":"1 55661U 23021AK  25340.55934228  .00001009  00000+0  92320-4 0  9992","satellite_name":"STARLINK-5475"},{"norad_id":"55662","company":"STARLINK","tle_line2":"2 55662  70.0005  38.6934 0003769 272.9430  87.1298 14.97523721155358","launch_date":"2023-02-17","type":"LEO","tle_line1":"1 55662U 23021AL  25340.60640401  .00000408  00000+0  42782-4 0  9995","satellite_name":"STARLINK-5479"},{"norad_id":"55663","company":"STARLINK","tle_line2":"2 55663  70.0011  39.1078 0002781 265.5614  94.5227 14.98339231155330","launch_date":"2023-02-17","type":"LEO","tle_line1":"1 55663U 23021AM  25340.61775470  .00001008  00000+0  92273-4 0  9999","satellite_name":"STARLINK-5473"},{"norad_id":"55664","company":"STARLINK","tle_line2":"2 55664  70.0006  39.3362 0003335 269.2154  90.8623 14.98334128155338","launch_date":"2023-02-17","type":"LEO","tle_line1":"1 55664U 23021AN  25340.56769036  .00001563  00000+0  13872-3 0  9998","satellite_name":"STARLINK-5480"},{"norad_id":"55665","company":"STARLINK","tle_line2":"2 55665  70.0004  39.2648 0003109 271.3086  88.7717 14.98335601155337","launch_date":"2023-02-17","type":"LEO","tle_line1":"1 55665U 23021AP  25340.54682309 -.00000603  00000+0 -42710-4 0  9994","satellite_name":"STARLINK-5474"},{"norad_id":"55667","company":"STARLINK","tle_line2":"2 55667  70.0005  39.0529 0003083 266.6806  93.4001 14.98332113155349","launch_date":"2023-02-17","type":"LEO","tle_line1":"1 55667U 23021AR  25340.60106773  .00000147  00000+0  20072-4 0  9997","satellite_name":"STARLINK-5456"},{"norad_id":"55668","company":"STARLINK","tle_line2":"2 55668  70.0031  39.3252 0012364 295.3560  64.6317 14.97427083155321","launch_date":"2023-02-17","type":"LEO","tle_line1":"1 55668U 23021AS  25340.56430681 -.00116793  00000+0 -10162-1 0  9994","satellite_name":"STARLINK-5455"},{"norad_id":"55669","company":"STARLINK","tle_line2":"2 55669  70.0020  39.2947 0004710 245.8842 114.1825 14.98643215155322","launch_date":"2023-02-17","type":"LEO","tle_line1":"1 55669U 23021AT  25340.55492870  .00043807  00000+0  36264-2 0  9997","satellite_name":"STARLINK-5459"},{"norad_id":"55670","company":"STARLINK","tle_line2":"2 55670  70.0010  39.2485 0002795 266.2526  93.8313 14.98337907155331","launch_date":"2023-02-17","type":"LEO","tle_line1":"1 55670U 23021AU  25340.54265162 -.00000996  00000+0 -75678-4 0  9998","satellite_name":"STARLINK-5423"},{"norad_id":"55671","company":"STARLINK","tle_line2":"2 55671  69.9995  39.4004 0003171 259.7828 100.2973 14.98324490155339","launch_date":"2023-02-17","type":"LEO","tle_line1":"1 55671U 23021AV  25340.58873503  .00002891  00000+0  25006-3 0  9990","satellite_name":"STARLINK-5460"}]