[{"OBJECT_NAME":"STARLINK-5070","OBJECT_ID":"2023-021AC","EPOCH":"2025-12-06T14:25:53.317056","MEAN_MOTION":14.98335645,"ECCENTRICITY":0.00033282,"INCLINATION":70.0018,"RA_OF_ASC_NODE":59.3293,"ARG_OF_PERICENTER":270.4325,"MEAN_ANOMALY":89.6453,"EPHEMERIS_TYPE":0,"CLASSIFICATION_TYPE":"U","NORAD_CAT_ID":55654,"ELEMENT_SET_NO":999,"REV_AT_EPOCH":15484,"BSTAR":0.00011833408,"MEAN_MOTION_DOT":1.319e-5,"MEAN_MOTION_DDOT":0},{"OBJECT_NAME":"STARLINK-5267","OBJECT_ID":"2023-021AD","EPOCH":"2025-12-06T13:43:29.964576","MEAN_MOTION":14.98329411,"ECCENTRICITY":0.0002825,"INCLINATION":70.001,"RA_OF_ASC_NODE":39.3505,"ARG_OF_PERICENTER":275.1203,"MEAN_ANOMALY":84.9634,"EPHEMERIS_TYPE":0,"CLASSIFICATION_TYPE":"U","NORAD_CAT_ID":55655,"ELEMENT_SET_NO":999,"REV_AT_EPOCH":15532,"BSTAR":-4.3966158e-5,"MEAN_MOTION_DOT":-6.17e-6,"MEAN_MOTION_DDOT":0},{"OBJECT_NAME":"STARLINK-5328","OBJECT_ID":"2023-021AF","EPOCH":"2025-12-06T04:19:16.121280","MEAN_MOTION":14.97939509,"ECCENTRICITY":0.0002241,"INCLINATION":70.001,"RA_OF_ASC_NODE":40.3915,"ARG_OF_PERICENTER":117.3192,"MEAN_ANOMALY":242.8196,"EPHEMERIS_TYPE":0,"CLASSIFICATION_TYPE":"U","NORAD_CAT_ID":55657,"ELEMENT_SET_NO":999,"REV_AT_EPOCH":15527,"BSTAR":-0.0039689625,"MEAN_MOTION_DOT":-0.00046661,"MEAN_MOTION_DDOT":0},{"OBJECT_NAME":"STARLINK-5307","OBJECT_ID":"2023-021AG","EPOCH":"2025-12-06T14:55:54.916896","MEAN_MOTION":14.98319605,"ECCENTRICITY":0.00033797,"INCLINATION":70.0001,"RA_OF_ASC_NODE":58.9985,"ARG_OF_PERICENTER":274.7544,"MEAN_ANOMALY":85.3229,"EPHEMERIS_TYPE":0,"CLASSIFICATION_TYPE":"U","NORAD_CAT_ID":55658,"ELEMENT_SET_NO":999,"REV_AT_EPOCH":15485,"BSTAR":0.0002325814,"MEAN_MOTION_DOT":2.682e-5,"MEAN_MOTION_DDOT":0},{"OBJECT_NAME":"STARLINK-5477","OBJECT_ID":"2023-021AH","EPOCH":"2025-12-06T13:49:31.162368","MEAN_MOTION":14.98306057,"ECCENTRICITY":0.00028075,"INCLINATION":70.0009,"RA_OF_ASC_NODE":39.3628,"ARG_OF_PERICENTER":267.9177,"MEAN_ANOMALY":92.166,"EPHEMERIS_TYPE":0,"CLASSIFICATION_TYPE":"U","NORAD_CAT_ID":55659,"ELEMENT_SET_NO":999,"REV_AT_EPOCH":15532,"BSTAR":8.3253543e-5,"MEAN_MOTION_DOT":9.0e-6,"MEAN_MOTION_DDOT":0},{"OBJECT_NAME":"STARLINK-5467","OBJECT_ID":"2023-021AJ","EPOCH":"2025-12-06T12:37:17.416128","MEAN_MOTION":14.98398377,"ECCENTRICITY":0.00022178,"INCLINATION":70.0038,"RA_OF_ASC_NODE":39.2016,"ARG_OF_PERICENTER":155.3535,"MEAN_ANOMALY":204.7731,"EPHEMERIS_TYPE":0,"CLASSIFICATION_TYPE":"U","NORAD_CAT_ID":55660,"ELEMENT_SET_NO":999,"REV_AT_EPOCH":15533,"BSTAR":0.0011013309,"MEAN_MOTION_DOT":0.00013095,"MEAN_MOTION_DDOT":0},{"OBJECT_NAME":"STARLINK-5475","OBJECT_ID":"2023-021AK","EPOCH":"2025-12-06T13:25:27.172992","MEAN_MOTION":14.98336389,"ECCENTRICITY":0.00034111,"INCLINATION":70,"RA_OF_ASC_NODE":39.3066,"ARG_OF_PERICENTER":267.049,"MEAN_ANOMALY":93.0278,"EPHEMERIS_TYPE":0,"CLASSIFICATION_TYPE":"U","NORAD_CAT_ID":55661,"ELEMENT_SET_NO":999,"REV_AT_EPOCH":15533,"BSTAR":9.2320257e-5,"MEAN_MOTION_DOT":1.009e-5,"MEAN_MOTION_DDOT":0},{"OBJECT_NAME":"STARLINK-5479","OBJECT_ID":"2023-021AL","EPOCH":"2025-12-06T14:33:13.306464","MEAN_MOTION":14.97523721,"ECCENTRICITY":0.00037692,"INCLINATION":70.0005,"RA_OF_ASC_NODE":38.6934,"ARG_OF_PERICENTER":272.943,"MEAN_ANOMALY":87.1298,"EPHEMERIS_TYPE":0,"CLASSIFICATION_TYPE":"U","NORAD_CAT_ID":55662,"ELEMENT_SET_NO":999,"REV_AT_EPOCH":15535,"BSTAR":4.278158e-5,"MEAN_MOTION_DOT":4.08e-6,"MEAN_MOTION_DDOT":0},{"OBJECT_NAME":"STARLINK-5473","OBJECT_ID":"2023-021AM","EPOCH":"2025-12-06T14:49:34.006080","MEAN_MOTION":14.98339231,"ECCENTRICITY":0.00027812,"INCLINATION":70.0011,"RA_OF_ASC_NODE":39.1078,"ARG_OF_PERICENTER":265.5614,"MEAN_ANOMALY":94.5227,"EPHEMERIS_TYPE":0,"CLASSIFICATION_TYPE":"U","NORAD_CAT_ID":55663,"ELEMENT_SET_NO":999,"REV_AT_EPOCH":15533,"BSTAR":9.2272706e-5,"MEAN_MOTION_DOT":1.008e-5,"MEAN_MOTION_DDOT":0},{"OBJECT_NAME":"STARLINK-5480","OBJECT_ID":"2023-021AN","EPOCH":"2025-12-06T13:37:28.447104","MEAN_MOTION":14.98334128,"ECCENTRICITY":0.00033357,"INCLINATION":70.0006,"RA_OF_ASC_NODE":39.3362,"ARG_OF_PERICENTER":269.2154,"MEAN_ANOMALY":90.8623,"EPHEMERIS_TYPE":0,"CLASSIFICATION_TYPE":"U","NORAD_CAT_ID":55664,"ELEMENT_SET_NO":999,"REV_AT_EPOCH":15533,"BSTAR":0.00013872493,"MEAN_MOTION_DOT":1.563e-5,"MEAN_MOTION_DDOT":0},{"OBJECT_NAME":"STARLINK-5474","OBJECT_ID":"2023-021AP","EPOCH":"2025-12-06T13:07:25.514976","MEAN_MOTION":14.98335601,"ECCENTRICITY":0.00031091,"INCLINATION":70.0004,"RA_OF_ASC_NODE":39.2648,"ARG_OF_PERICENTER":271.3086,"MEAN_ANOMALY":88.7717,"EPHEMERIS_TYPE":0,"CLASSIFICATION_TYPE":"U","NORAD_CAT_ID":55665,"ELEMENT_SET_NO":999,"REV_AT_EPOCH":15533,"BSTAR":-4.2709735e-5,"MEAN_MOTION_DOT":-6.03e-6,"MEAN_MOTION_DDOT":0},{"OBJECT_NAME":"STARLINK-5456","OBJECT_ID":"2023-021AR","EPOCH":"2025-12-06T14:25:32.251872","MEAN_MOTION":14.98332113,"ECCENTRICITY":0.00030836,"INCLINATION":70.0005,"RA_OF_ASC_NODE":39.0529,"ARG_OF_PERICENTER":266.6806,"MEAN_ANOMALY":93.4001,"EPHEMERIS_TYPE":0,"CLASSIFICATION_TYPE":"U","NORAD_CAT_ID":55667,"ELEMENT_SET_NO":999,"REV_AT_EPOCH":15534,"BSTAR":2.0072306e-5,"MEAN_MOTION_DOT":1.47e-6,"MEAN_MOTION_DDOT":0},{"OBJECT_NAME":"STARLINK-5455","OBJECT_ID":"2023-021AS","EPOCH":"2025-12-06T13:32:36.108384","MEAN_MOTION":14.97427083,"ECCENTRICITY":0.00123648,"INCLINATION":70.0031,"RA_OF_ASC_NODE":39.3252,"ARG_OF_PERICENTER":295.356,"MEAN_ANOMALY":64.6317,"EPHEMERIS_TYPE":0,"CLASSIFICATION_TYPE":"U","NORAD_CAT_ID":55668,"ELEMENT_SET_NO":999,"REV_AT_EPOCH":15532,"BSTAR":-0.010161655,"MEAN_MOTION_DOT":-0.00116793,"MEAN_MOTION_DDOT":0},{"OBJECT_NAME":"STARLINK-5459","OBJECT_ID":"2023-021AT","EPOCH":"2025-12-06T13:19:05.839680","MEAN_MOTION":14.98643215,"ECCENTRICITY":0.00047108,"INCLINATION":70.002,"RA_OF_ASC_NODE":39.2947,"ARG_OF_PERICENTER":245.8842,"MEAN_ANOMALY":114.1825,"EPHEMERIS_TYPE":0,"CLASSIFICATION_TYPE":"U","NORAD_CAT_ID":55669,"ELEMENT_SET_NO":999,"REV_AT_EPOCH":15532,"BSTAR":0.0036264024,"MEAN_MOTION_DOT":0.00043807,"MEAN_MOTION_DDOT":0},{"OBJECT_NAME":"STARLINK-5423","OBJECT_ID":"2023-021AU","EPOCH":"2025-12-06T13:01:25.099968","MEAN_MOTION":14.98337907,"ECCENTRICITY":0.00027957,"INCLINATION":70.001,"RA_OF_ASC_NODE":39.2485,"ARG_OF_PERICENTER":266.2526,"MEAN_ANOMALY":93.8313,"EPHEMERIS_TYPE":0,"CLASSIFICATION_TYPE":"U","NORAD_CAT_ID":55670,"ELEMENT_SET_NO":999,"REV_AT_EPOCH":15533,"BSTAR":-7.5678077e-5,"MEAN_MOTION_DOT":-9.96e-6,"MEAN_MOTION_DDOT":0},{"OBJECT_NAME":"STARLINK-5460","OBJECT_ID":"2023-021AV","EPOCH":"2025-12-06T14:07:46.706592","MEAN_MOTION":14.9832449,"ECCENTRICITY":0.00031713,"INCLINATION":69.9995,"RA_OF_ASC_NODE":39.4004,"ARG_OF_PERICENTER":259.7828,"MEAN_ANOMALY":100.2973,"EPHEMERIS_TYPE":0,"CLASSIFICATION_TYPE":"U","NORAD_CAT_ID":55671,"ELEMENT_SET_NO":999,"REV_AT_EPOCH":15533,"BSTAR":0.00025005809,"MEAN_MOTION_DOT":2.891e-5,"MEAN_MOTION_DDOT":0}]
